OUFTI-1                 
1 41458U 16025C   22101.44732054  .00020667  00000+0  90221-3 0  9998
2 41458  98.1802 263.0638 0147664 132.6425 228.7362 15.12772683327443
E-ST@R-II               
1 41459U 16025D   22101.88180199  .00021841  00000+0  96954-3 0  9998
2 41459  98.1779 262.2099 0150767 135.1304 226.2202 15.11855369327438
AAUSAT 4                
1 41460U 16025E   22101.71145002  .00031192  00000+0  12592-2 0  9991
2 41460  98.1748 267.6607 0132588 114.0085 247.4998 15.16912288327811
AIST-2D (RS-48)         
1 41465U 16026B   22101.74061796  .00016263  00000+0  41239-3 0  9990
2 41465  97.0661 340.3633 0010589  26.1993  47.4655 15.39709835333264
NUSAT-1 (FRESCO)        
1 41557U 16033B   22101.77661623  .00016421  00000+0  51901-3 0  9991
2 41557  97.3839 199.4675 0010693 251.3118 227.5157 15.32827293327164
NUSAT-2 (BATATA)        
1 41558U 16033C   22101.76532782  .00015726  00000+0  46639-3 0  9993
2 41558  97.4011 204.7879 0010171 239.9112 271.4126 15.34865173327414
CARTOSAT-2C             
1 41599U 16040A   22101.76250063  .00004394  00000+0  21158-3 0  9993
2 41599  97.4941 161.9211 0014256  59.7911  71.6962 15.19196621321801
SATHYABAMASAT           
1 41600U 16040B   22101.70964440  .00017996  00000+0  61333-3 0  9992
2 41600  97.2291 155.8048 0011177   7.2171 352.9229 15.30368117322687
LAPAN-A3                
1 41603U 16040E   22101.77304405  .00001926  00000+0  91053-4 0  9990
2 41603  97.2154 141.6846 0014153  42.4460  48.3793 15.20456036321909
BIROS                   
1 41604U 16040F   22101.68680913  .00004630  00000+0  19504-3 0  9997
2 41604  97.2196 148.5952 0012068  17.8180 342.3478 15.23757125322294
SWAYAM                  
1 41607U 16040J   22101.69205955  .00016787  00000+0  58415-3 0  9990
2 41607  97.2246 154.1973 0011077   8.7106 351.4325 15.29706137322560
BEESAT-4                
1 41619U 16040W   22101.41109792  .00016455  00000+0  58415-3 0  9997
2 41619  97.2260 153.8985 0009296   5.3542 354.7796 15.29076670310472
3CAT-2                  
1 41732U 16051B   22101.76699743  .00014664  00000+0  47697-3 0  9993
2 41732  97.3832  24.9959 0012377 159.3583 262.3260 15.31911709315112
PRATHAM                 
1 41783U 16059A   22101.82659266  .00000447  00000+0  94849-4 0  9996
2 41783  97.9218 146.0245 0033971  26.7564 333.5382 14.63285156295886
ALSAT 1N                
1 41789U 16059G   22101.80974965  .00000488  00000+0  10018-3 0  9996
2 41789  97.9246 150.4223 0028057  11.2013 348.9779 14.64600175296115
LISHUI 1-01             
1 41845U 16066E   22101.83458398  .00015208  00000+0  17022-2 0  9994
2 41845  98.7275 228.0193 0232929 277.3154  80.1608 14.69266672287035
CARTOSAT-2D             
1 41948U 17008A   22101.50887712  .00005619  00000+0  26993-3 0  9998
2 41948  97.4720 161.9116 0006597 194.3931 165.7088 15.19221477285637
NAYIF-1 (EO-88)         
1 42017U 17008BX  22101.15815247  .00018947  00000+0  60979-3 0  9991
2 42017  97.2753 168.3414 0006732 125.0405 235.1470 15.32245807286769
ZHUHAI-1 02 (CAS-4B)    
1 42759U 17034B   22101.84044141  .00005057  00000+0  30742-3 0  9999
2 42759  43.0186 339.7253 0009634 234.8799 220.0798 15.11329824266274
ZHUHAI-1 01 (CAS-4A)    
1 42761U 17034D   22101.81294595  .00005196  00000+0  31471-3 0  9993
2 42761  43.0181 338.7128 0009939 236.1434 212.2305 15.11415882266278
UCLSAT                  
1 42765U 17036A   22101.56649221  .00013449  00000+0  49430-3 0  9995
2 42765  97.2070 146.3769 0009833 191.6062 168.4953 15.27973752267633
NIUSAT                  
1 42766U 17036B   22101.82703432  .00007806  00000+0  31436-3 0  9997
2 42766  97.2110 142.0596 0013860 195.5578 164.5237 15.25037787266649
CARTOSAT-2E             
1 42767U 17036C   22101.75244044  .00004275  00000+0  20614-3 0  9992
2 42767  97.4608 163.0965 0006995 245.1847 262.7414 15.19221540266237
LITUANICASAT-2          
1 42768U 17036D   22101.40130780  .00025106  00000+0  81246-3 0  9990
2 42768  97.2157 148.3447 0012425 180.1442 179.9799 15.31958669266979
AALTO-1                 
1 42775U 17036L   22101.57597960  .00008272  00000+0  33780-3 0  9998
2 42775  97.2068 141.8391 0012501 195.3755 164.7105 15.24568709266588
URSA MAIOR              
1 42776U 17036M   22101.57890916  .00009140  00000+0  36796-3 0  9991
2 42776  97.2080 142.5082 0012319 194.0520 166.0377 15.25018828266614
COMPASS 2               
1 42777U 17036N   22101.38238124  .00018417  00000+0  63558-3 0  9991
2 42777  97.2141 147.9621 0010826 181.1531 178.9686 15.29959293266889
MAX VALIER SAT          
1 42778U 17036P   22101.39022540  .00010054  00000+0  39614-3 0  9991
2 42778  97.2150 144.8227 0011010 194.3660 165.7267 15.25728665266672
PEGASUS                 
1 42784U 17036V   22101.58426563  .00012485  00000+0  46905-3 0  9993
2 42784  97.2086 145.7268 0010391 195.3371 164.7555 15.27262736266801
NUDTSAT                 
1 42787U 17036Y   22101.62463213  .00022583  00000+0  75657-3 0  9990
2 42787  97.2115 149.4143 0009781 183.0667 177.0517 15.30891245266861
SUCHAI                  
1 42788U 17036Z   22101.58394231  .00014982  00000+0  53903-3 0  9993
2 42788  97.2094 147.1932 0010021 190.2208 169.8830 15.28650640266966
SKCUBE                  
1 42789U 17036AA  22101.35563044  .00014132  00000+0  51740-3 0  9993
2 42789  97.2091 146.5069 0009941 192.1140 167.9863 15.28090687266822
VZLUSAT-1               
1 42790U 17036AB  22101.36603563  .00019480  00000+0  65505-3 0  9992
2 42790  97.2118 149.1407 0009381 184.2385 175.8778 15.30804350266972
ROBUSTA-1B              
1 42792U 17036AD  22101.39718506  .00015386  00000+0  55568-3 0  9990
2 42792  97.2089 147.0640 0009518 191.4991 168.6033 15.28523639266870
D-SAT                   
1 42794U 17036AF  22101.57015257  .00003503  00000+0  30182-3 0  9998
2 42794  97.4540 110.5203 0122405 309.6234  49.4232 14.92309221261501
NORSAT 2                
1 42828U 17042D   22101.59206395  .00002114  00000+0  21081-3 0  9995
2 42828  97.4396 321.6600 0012973 224.0002 136.0186 14.92497782258197
TECHNOSAT               
1 42829U 17042E   22101.61086462  .00001568  00000+0  16094-3 0  9990
2 42829  97.4303 319.6242 0012843 227.0183 132.9961 14.91662948258120
2017-042F               
1 42830U 17042F   22101.84970343  .00004314  00000+0  40669-3 0  9994
2 42830  97.4453 323.8294 0012527 214.7675 145.2728 14.94232480258338
FLYING LAPTOP           
1 42831U 17042G   22101.85307190  .00001051  00000+0  10973-3 0  9990
2 42831  97.4319 320.1581 0012587 226.2518 133.7648 14.91627672258161
CORVUS BC2              
1 42846U 17042X   22101.58681711  .00001127  00000+0  11431-3 0  9994
2 42846  97.4327 322.6526 0008506 213.1307 146.9381 14.92687999258304
CORVUS BC1              
1 42847U 17042Y   22101.53806109  .00001367  00000+0  13724-3 0  9993
2 42847  97.4330 322.9003 0008156 211.9219 148.1508 14.92791205258302
SIMPL                   
1 42983U 98067NF  22101.55721713  .00082737  00000+0  38187-3 0  9999
2 42983  51.6331 173.2420 0005507  13.3085 346.8062 15.82800338254292
CZ-4C R/B               
1 43012U 17072C   22101.55829409  .00000307  00000+0  73646-4 0  9994
2 43012  98.7056 134.7733 0127766 161.5762 199.0125 14.56292173234121
RADFXSAT (FOX-1B)       
1 43017U 17073E   22101.76155872  .00005863  00000+0  44321-3 0  9998
2 43017  97.6828 358.6741 0251941  46.4176 315.7651 14.80786498237242
EAGLESAT 1              
1 43018U 17073F   22101.66295198  .00010300  00000+0  75308-3 0  9995
2 43018  97.6856   0.1176 0245925  41.4653 320.4934 14.82629712237193
INS-1C                  
1 43116U 18004F   22101.76655129  .00012907  00000+0  47116-3 0  9995
2 43116  97.3797 178.3353 0007633 220.6121 139.4550 15.28233304236146
FLOCK 3P'-3             
1 43119U 18004J   22101.51487010  .00008093  00000+0  31478-3 0  9998
2 43119  97.3791 176.3726 0008324 232.4959 127.5523 15.26255890236008
FLOCK 3P'-2             
1 43120U 18004K   22101.43460194  .00007316  00000+0  28942-3 0  9994
2 43120  97.3795 175.9513 0008193 235.5899 124.4565 15.25725617235968
FLOCK 3P'-1             
1 43121U 18004L   22101.46053762  .00024163  00000+0  75893-3 0  9993
2 43121  97.3802 179.9645 0007398 215.6604 144.4144 15.32975706236169
FLOCK 3P'-4             
1 43122U 18004M   22101.48767124  .00007711  00000+0  30439-3 0  9997
2 43122  97.3805 176.1632 0008129 236.5410 123.5051 15.25782330235972
MICROMAS-2A             
1 43131U 18004W   22101.19102751  .00027185  00000+0  85813-3 0  9997
2 43131  97.3787 180.4710 0007013 218.4815 141.5928 15.32793701236263
PICSAT                  
1 43132U 18004X   22101.47689062  .00016631  00000+0  58532-3 0  9996
2 43132  97.3754 178.3083 0007375 227.7947 132.2668 15.29375073236168
CNUSAIL-1               
1 43133U 18004Y   22101.17490190  .00011110  00000+0  41797-3 0  9998
2 43133  97.3717 176.2851 0007556 234.2722 125.7815 15.27275599236029
2018-004Z               
1 43134U 18004Z   22101.75857731  .00012952  00000+0  46895-3 0  9990
2 43134  97.3742 177.9901 0007384 229.2777 130.7822 15.28503260236164
FOX-1D (AO-92)          
1 43137U 18004AC  22101.45934912  .00011442  00000+0  42221-3 0  9999
2 43137  97.3726 177.2787 0007079 231.5928 128.4676 15.27910880236114
STEP CUBE LAB           
1 43138U 18004AD  22101.43808970  .00020744  00000+0  68109-3 0  9990
2 43138  97.3787 180.2675 0006889 223.3101 136.7599 15.31586048236275
XIAOXIANG-2             
1 43155U 18008A   22101.79210804  .00009759  00000+0  53421-3 0  9999
2 43155  97.3596 162.3555 0016483  21.8078 115.5466 15.14321296233183
ZHOU ENLAI              
1 43156U 18008B   22101.79645940  .00010281  00000+0  56769-3 0  9993
2 43156  97.3640 162.2201 0013737  23.4953 113.9933 15.14033306233116
QUANTUTONG 1            
1 43158U 18008D   22101.73410894  .00007750  00000+0  43944-3 0  9995
2 43158  97.3595 160.2665 0012989  24.4553  92.9957 15.13174120233014
